SEMAPHORE-C_L_00021001-121
1 10120U 25045YE  26075.69991898  .00000000  00000+0  00000-0 0  9998
2 10120  97.8000   0.0000 0000000   0.0000 180.0000 14.89338871    12
SEMAPHORE-C_L_00021001-122
1 10121U 26525YO  26075.69991898  .00000000  00000+0  00000-0 0  9993
2 10121  97.8000   0.0000 0000000   0.0000 181.5000 14.89338871    19
SEMAPHORE-C_L_00021001-123
1 10122U 24702JD  26075.69991898  .00000000  00000+0  00000-0 0  9999
2 10122  97.8000   0.0000 0000000   0.0000 183.0000 14.89338871    17
SEMAPHORE-C_L_00021001-124
1 10123U 25034GK  26075.69991898  .00000000  00000+0  00000-0 0  9999
2 10123  97.8000   0.0000 0000000   0.0000 184.5000 14.89338871    14
SEMAPHORE-C_L_00021001-125
1 10124U 26823JM  26075.69991898  .00000000  00000+0  00000-0 0  9997
2 10124  97.8000   0.0000 0000000   0.0000 186.0000 14.89338871    12
SEMAPHORE-C_L_00021001-126
1 10125U 24683XF  26075.69991898  .00000000  00000+0  00000-0 0  9990
2 10125  97.8000   0.0000 0000000   0.0000 187.5000 14.89338871    19
SEMAPHORE-C_L_00021001-127
1 10126U 23768CD  26075.69991898  .00000000  00000+0  00000-0 0  9994
2 10126  97.8000   0.0000 0000000   0.0000 189.0000 14.89338871    17
SEMAPHORE-C_L_00021001-128
1 10127U 23424BZ  26075.69991898  .00000000  00000+0  00000-0 0  9994
2 10127  97.8000   0.0000 0000000   0.0000 190.5000 14.89338871    15
SEMAPHORE-C_L_00021001-129
1 10128U 23696ZA  26075.69991898  .00000000  00000+0  00000-0 0  9996
2 10128  97.8000   0.0000 0000000   0.0000 192.0000 14.89338871    13
SEMAPHORE-C_L_00021001-130
1 10129U 23983QQ  26075.69991898  .00000000  00000+0  00000-0 0  9996
2 10129  97.8000   0.0000 0000000   0.0000 193.5000 14.89338871    10
SEMAPHORE-C_L_00021001-131
1 10130U 24541JA  26075.69991898  .00000000  00000+0  00000-0 0  9999
2 10130  97.8000   0.0000 0000000   0.0000 195.0000 14.89338871    19
SEMAPHORE-C_L_00021001-132
1 10131U 24769WY  26075.69991898  .00000000  00000+0  00000-0 0  9992
2 10131  97.8000   0.0000 0000000   0.0000 196.5000 14.89338871    16
SEMAPHORE-C_L_00021001-133
1 10132U 25442HZ  26075.69991898  .00000000  00000+0  00000-0 0  9992
2 10132  97.8000   0.0000 0000000   0.0000 198.0000 14.89338871    14
SEMAPHORE-C_L_00021001-134
1 10133U 25599XS  26075.69991898  .00000000  00000+0  00000-0 0  9996
2 10133  97.8000   0.0000 0000000   0.0000 199.5000 14.89338871    11
SEMAPHORE-C_L_00021001-135
1 10134U 26653UG  26075.69991898  .00000000  00000+0  00000-0 0  9999
2 10134  97.8000   0.0000 0000000   0.0000 201.0000 14.89338871    11
SEMAPHORE-C_L_00021001-136
1 10135U 25394FP  26075.69991898  .00000000  00000+0  00000-0 0  9991
2 10135  97.8000   0.0000 0000000   0.0000 202.5000 14.89338871    18
SEMAPHORE-C_L_00021001-137
1 10136U 25762ZN  26075.69991898  .00000000  00000+0  00000-0 0  9991
2 10136  97.8000   0.0000 0000000   0.0000 204.0000 14.89338871    16
SEMAPHORE-C_L_00021001-138
1 10137U 23175GD  26075.69991898  .00000000  00000+0  00000-0 0  9998
2 10137  97.8000   0.0000 0000000   0.0000 205.5000 14.89338871    13
SEMAPHORE-C_L_00021001-139
1 10138U 25980AU  26075.69991898  .00000000  00000+0  00000-0 0  9995
2 10138  97.8000   0.0000 0000000   0.0000 207.0000 14.89338871    11
SEMAPHORE-C_L_00021001-140
1 10139U 23551CH  26075.69991898  .00000000  00000+0  00000-0 0  9998
2 10139  97.8000   0.0000 0000000   0.0000 208.5000 14.89338871    18
SEMAPHORE-C_L_00021001-141
1 10140U 24393EF  26075.69991898  .00000000  00000+0  00000-0 0  9995
2 10140  97.8000   0.0000 0000000   0.0000 210.0000 14.89338871    18
SEMAPHORE-C_L_00021001-142
1 10141U 25450GY  26075.69991898  .00000000  00000+0  00000-0 0  9991
2 10141  97.8000   0.0000 0000000   0.0000 211.5000 14.89338871    15
SEMAPHORE-C_L_00021001-143
1 10142U 26907BE  26075.69991898  .00000000  00000+0  00000-0 0  9990
2 10142  97.8000   0.0000 0000000   0.0000 213.0000 14.89338871    13
SEMAPHORE-C_L_00021001-144
1 10143U 26905YV  26075.69991898  .00000000  00000+0  00000-0 0  9999
2 10143  97.8000   0.0000 0000000   0.0000 214.5000 14.89338871    10
SEMAPHORE-C_L_00021001-145
1 10144U 26430UL  26075.69991898  .00000000  00000+0  00000-0 0  9993
2 10144  97.8000   0.0000 0000000   0.0000 216.0000 14.89338871    18
SEMAPHORE-C_L_00021001-146
1 10145U 25709UC  26075.69991898  .00000000  00000+0  00000-0 0  9992
2 10145  97.8000   0.0000 0000000   0.0000 217.5000 14.89338871    15
SEMAPHORE-C_L_00021001-147
1 10146U 24482MV  26075.69991898  .00000000  00000+0  00000-0 0  9990
2 10146  97.8000   0.0000 0000000   0.0000 219.0000 14.89338871    13
SEMAPHORE-C_L_00021001-148
1 10147U 23356BB  26075.69991898  .00000000  00000+0  00000-0 0  9990
2 10147  97.8000   0.0000 0000000   0.0000 220.5000 14.89338871    11
SEMAPHORE-C_L_00021001-149
1 10148U 26721YF  26075.69991898  .00000000  00000+0  00000-0 0  9990
2 10148  97.8000   0.0000 0000000   0.0000 222.0000 14.89338871    19
SEMAPHORE-C_L_00021001-150
1 10149U 26391ZS  26075.69991898  .00000000  00000+0  00000-0 0  9994
2 10149  97.8000   0.0000 0000000   0.0000 223.5000 14.89338871    16
SEMAPHORE-C_L_00021001-151
1 10150U 25903TL  26075.69991898  .00000000  00000+0  00000-0 0  9994
2 10150  97.8000   0.0000 0000000   0.0000 225.0000 14.89338871    15
SEMAPHORE-C_L_00021001-152
1 10151U 23356VN  26075.69991898  .00000000  00000+0  00000-0 0  9995
2 10151  97.8000   0.0000 0000000   0.0000 226.5000 14.89338871    12
SEMAPHORE-C_L_00021001-153
1 10152U 24326QH  26075.69991898  .00000000  00000+0  00000-0 0  9994
2 10152  97.8000   0.0000 0000000   0.0000 228.0000 14.89338871    10
SEMAPHORE-C_L_00021001-154
1 10153U 25011GD  26075.69991898  .00000000  00000+0  00000-0 0  9997
2 10153  97.8000   0.0000 0000000   0.0000 229.5000 14.89338871    17
SEMAPHORE-C_L_00021001-155
1 10154U 24323IG  26075.69991898  .00000000  00000+0  00000-0 0  9993
2 10154  97.8000   0.0000 0000000   0.0000 231.0000 14.89338871    16
SEMAPHORE-C_L_00021001-156
1 10155U 26975KX  26075.69991898  .00000000  00000+0  00000-0 0  9999
2 10155  97.8000   0.0000 0000000   0.0000 232.5000 14.89338871    13
SEMAPHORE-C_L_00021001-157
1 10156U 22774E   26075.69991898  .00000000  00000+0  00000-0 0  9993
2 10156  97.8000   0.0000 0000000   0.0000 234.0000 14.89338871    11
SEMAPHORE-C_L_00021001-158
1 10157U 23179QJ  26075.69991898  .00000000  00000+0  00000-0 0  9994
2 10157  97.8000   0.0000 0000000   0.0000 235.5000 14.89338871    18
SEMAPHORE-C_L_00021001-159
1 10158U 25820YI  26075.69991898  .00000000  00000+0  00000-0 0  9990
2 10158  97.8000   0.0000 0000000   0.0000 237.0000 14.89338871    16
SEMAPHORE-C_L_00021001-160
1 10159U 22826LP  26075.69991898  .00000000  00000+0  00000-0 0  9994
2 10159  97.8000   0.0000 0000000   0.0000 238.5000 14.89338871    13
SEMAPHORE-C_L_00021001-161
1 10160U 23015RQ  26075.69991898  .00000000  00000+0  00000-0 0  9997
2 10160  97.8000   0.0000 0000000   0.0000 240.0000 14.89338871    13
SEMAPHORE-C_L_00021001-162
1 10161U 24743HP  26075.69991898  .00000000  00000+0  00000-0 0  9997
2 10161  97.8000   0.0000 0000000   0.0000 241.5000 14.89338871    10
SEMAPHORE-C_L_00021001-163
1 10162U 22560WJ  26075.69991898  .00000000  00000+0  00000-0 0  9993
2 10162  97.8000   0.0000 0000000   0.0000 243.0000 14.89338871    18
SEMAPHORE-C_L_00021001-164
1 10163U 22964NR  26075.69991898  .00000000  00000+0  00000-0 0  9992
2 10163  97.8000   0.0000 0000000   0.0000 244.5000 14.89338871    15
SEMAPHORE-C_L_00021001-165
1 10164U 22581EF  26075.69991898  .00000000  00000+0  00000-0 0  9998
2 10164  97.8000   0.0000 0000000   0.0000 246.0000 14.89338871    13
SEMAPHORE-C_L_00021001-166
1 10165U 23064HY  26075.69991898  .00000000  00000+0  00000-0 0  9996
2 10165  97.8000   0.0000 0000000   0.0000 247.5000 14.89338871    10
SEMAPHORE-C_L_00021001-167
1 10166U 23660JO  26075.69991898  .00000000  00000+0  00000-0 0  9999
2 10166  97.8000   0.0000 0000000   0.0000 249.0000 14.89338871    18
SEMAPHORE-C_L_00021001-168
1 10167U 24915PZ  26075.69991898  .00000000  00000+0  00000-0 0  9994
2 10167  97.8000   0.0000 0000000   0.0000 250.5000 14.89338871    16
SEMAPHORE-C_L_00021001-169
1 10168U 26369RZ  26075.69991898  .00000000  00000+0  00000-0 0  9990
2 10168  97.8000   0.0000 0000000   0.0000 252.0000 14.89338871    14
SEMAPHORE-C_L_00021001-170
1 10169U 25650EN  26075.69991898  .00000000  00000+0  00000-0 0  9993
2 10169  97.8000   0.0000 0000000   0.0000 253.5000 14.89338871    11
SEMAPHORE-C_L_00021001-171
1 10170U 24413AS  26075.69991898  .00000000  00000+0  00000-0 0  9991
2 10170  97.8000   0.0000 0000000   0.0000 255.0000 14.89338871    10
SEMAPHORE-C_L_00021001-172
1 10171U 23551ES  26075.69991898  .00000000  00000+0  00000-0 0  9994
2 10171  97.8000   0.0000 0000000   0.0000 256.5000 14.89338871    17
SEMAPHORE-C_L_00021001-173
1 10172U 24178IC  26075.69991898  .00000000  00000+0  00000-0 0  9991
2 10172  97.8000   0.0000 0000000   0.0000 258.0000 14.89338871    15
SEMAPHORE-C_L_00021001-174
1 10173U 22199KQ  26075.69991898  .00000000  00000+0  00000-0 0  9993
2 10173  97.8000   0.0000 0000000   0.0000 259.5000 14.89338871    12
SEMAPHORE-C_L_00021001-175
1 10174U 25616JB  26075.69991898  .00000000  00000+0  00000-0 0  9991
2 10174  97.8000   0.0000 0000000   0.0000 261.0000 14.89338871    11
SEMAPHORE-C_L_00021001-176
1 10175U 26424ND  26075.69991898  .00000000  00000+0  00000-0 0  9990
2 10175  97.8000   0.0000 0000000   0.0000 262.5000 14.89338871    18
SEMAPHORE-C_L_00021001-177
1 10176U 24098OO  26075.69991898  .00000000  00000+0  00000-0 0  9996
2 10176  97.8000   0.0000 0000000   0.0000 264.0000 14.89338871    16
SEMAPHORE-C_L_00021001-178
1 10177U 24308YH  26075.69991898  .00000000  00000+0  00000-0 0  9991
2 10177  97.8000   0.0000 0000000   0.0000 265.5000 14.89338871    13
SEMAPHORE-C_L_00021001-179
1 10178U 24280BO  26075.69991898  .00000000  00000+0  00000-0 0  9991
2 10178  97.8000   0.0000 0000000   0.0000 267.0000 14.89338871    11
